SL-14 R/B               
1 21423U 91042B   26048.02717757  .00000462  00000+0  55458-4 0  9996
2 21423  82.4898 239.5619 0015913 312.7240  47.2633 14.81808489850016
ERS-1                   
1 21574U 91050A   26048.05245154  .00000373  00000+0  13419-3 0  9993
2 21574  98.7893  65.7678 0030873 263.2824  96.4849 14.39432669812763
ARIANE 40 R/B           
1 21610U 91050F   26048.15248134  .00000345  00000+0  11586-3 0  9998
2 21610  98.2058 101.1552 0004182 125.9888 234.1691 14.42878326816034
INTERCOSMOS 25          
1 21819U 91086A   26048.26535578  .00001118  00000+0  21430-3 0  9999
2 21819  82.6084 322.3503 1486953 160.9300 205.4174 12.11942510494213
SL-8 R/B                
1 21876U 92008B   26048.09111872  .00000068  00000+0  54655-4 0  9994
2 21876  82.9251 283.1034 0034341 190.1176 334.6906 13.75970098706580
SL-8 R/B                
1 21938U 92020B   26048.24340054  .00000097  00000+0  84936-4 0  9997
2 21938  82.9338 168.9371 0028723 357.5880  18.6070 13.75546724698325
USA 81                  
1 21949U 92023A   26048.26029538  .00000206  00000+0  69042-4 0  9998
2 21949  85.0116 143.2221 0002762  95.8960 264.2548 14.32360516 91863
COSMOS 2219             
1 22219U 92076A   26048.28983103  .00000216  00000+0  13800-3 0  9997
2 22219  71.0582  60.7147 0019935 234.5703 125.3558 14.14078573715492
SL-16 R/B               
1 22220U 92076B   26047.95801810 -.00000162  00000+0 -56970-4 0  9994
2 22220  70.9975 232.0436 0011186 134.0991  17.7614 14.16855003718893
COSMOS 2221             
1 22236U 92080A   26048.17217342  .00002134  00000+0  18720-3 0  9991
2 22236  82.5044 298.7330 0012797 261.9986  97.9784 14.96120543777728
SL-16 R/B               
1 22285U 92093B   26048.24516529  .00000308  00000+0  18221-3 0  9993
2 22285  71.0208  47.1842 0005482 315.9413  44.1272 14.15444086710263
COSMOS 2228             
1 22286U 92094A   26048.26881754  .00002073  00000+0  17697-3 0  9999
2 22286  82.5147 256.8662 0018430  15.2321 344.9453 14.97091010773005
