CCSDS_OMM_VERS = 2.0
CREATION_DATE  = 
ORIGINATOR     = 

OBJECT_NAME    = SL-14 R/B
OBJECT_ID      = 1991-042B
CENTER_NAME    = EARTH
REF_FRAME      = TEME
TIME_SYSTEM    = UTC
MEAN_ELEMENT_THEORY = SGP/SGP4

EPOCH          = 2026-02-17T00:39:08.142048
MEAN_MOTION    = 14.81808489
ECCENTRICITY   = .00159138
INCLINATION    = 82.4898
RA_OF_ASC_NODE = 239.5619
ARG_OF_PERICENTER = 312.7240
MEAN_ANOMALY   = 47.2633

EPHEMERIS_TYPE = 0
CLASSIFICATION_TYPE = U
NORAD_CAT_ID   = 21423
ELEMENT_SET_NO = 999
REV_AT_EPOCH   = 85001
BSTAR          = .55457677E-4
MEAN_MOTION_DOT = .462E-5
MEAN_MOTION_DDOT = 0

CCSDS_OMM_VERS = 2.0
CREATION_DATE  = 
ORIGINATOR     = 

OBJECT_NAME    = ERS-1
OBJECT_ID      = 1991-050A
CENTER_NAME    = EARTH
REF_FRAME      = TEME
TIME_SYSTEM    = UTC
MEAN_ELEMENT_THEORY = SGP/SGP4

EPOCH          = 2026-02-17T01:15:31.813056
MEAN_MOTION    = 14.39432669
ECCENTRICITY   = .00308738
INCLINATION    = 98.7893
RA_OF_ASC_NODE = 65.7678
ARG_OF_PERICENTER = 263.2824
MEAN_ANOMALY   = 96.4849

EPHEMERIS_TYPE = 0
CLASSIFICATION_TYPE = U
NORAD_CAT_ID   = 21574
ELEMENT_SET_NO = 999
REV_AT_EPOCH   = 81276
BSTAR          = .13419255E-3
MEAN_MOTION_DOT = .373E-5
MEAN_MOTION_DDOT = 0

CCSDS_OMM_VERS = 2.0
CREATION_DATE  = 
ORIGINATOR     = 

OBJECT_NAME    = ARIANE 40 R/B
OBJECT_ID      = 1991-050F
CENTER_NAME    = EARTH
REF_FRAME      = TEME
TIME_SYSTEM    = UTC
MEAN_ELEMENT_THEORY = SGP/SGP4

EPOCH          = 2026-02-17T03:39:34.387776
MEAN_MOTION    = 14.42878326
ECCENTRICITY   = .00041826
INCLINATION    = 98.2058
RA_OF_ASC_NODE = 101.1552
ARG_OF_PERICENTER = 125.9888
MEAN_ANOMALY   = 234.1691

EPHEMERIS_TYPE = 0
CLASSIFICATION_TYPE = U
NORAD_CAT_ID   = 21610
ELEMENT_SET_NO = 999
REV_AT_EPOCH   = 81603
BSTAR          = .11585613E-3
MEAN_MOTION_DOT = .345E-5
MEAN_MOTION_DDOT = 0

CCSDS_OMM_VERS = 2.0
CREATION_DATE  = 
ORIGINATOR     = 

OBJECT_NAME    = INTERCOSMOS 25
OBJECT_ID      = 1991-086A
CENTER_NAME    = EARTH
REF_FRAME      = TEME
TIME_SYSTEM    = UTC
MEAN_ELEMENT_THEORY = SGP/SGP4

EPOCH          = 2026-02-17T06:22:06.739392
MEAN_MOTION    = 12.11942510
ECCENTRICITY   = .14869532
INCLINATION    = 82.6084
RA_OF_ASC_NODE = 322.3503
ARG_OF_PERICENTER = 160.9300
MEAN_ANOMALY   = 205.4174

EPHEMERIS_TYPE = 0
CLASSIFICATION_TYPE = U
NORAD_CAT_ID   = 21819
ELEMENT_SET_NO = 999
REV_AT_EPOCH   = 49421
BSTAR          = .2143021E-3
MEAN_MOTION_DOT = .1118E-4
MEAN_MOTION_DDOT = 0

CCSDS_OMM_VERS = 2.0
CREATION_DATE  = 
ORIGINATOR     = 

OBJECT_NAME    = SL-8 R/B
OBJECT_ID      = 1992-008B
CENTER_NAME    = EARTH
REF_FRAME      = TEME
TIME_SYSTEM    = UTC
MEAN_ELEMENT_THEORY = SGP/SGP4

EPOCH          = 2026-02-17T02:11:12.657408
MEAN_MOTION    = 13.75970098
ECCENTRICITY   = .00343417
INCLINATION    = 82.9251
RA_OF_ASC_NODE = 283.1034
ARG_OF_PERICENTER = 190.1176
MEAN_ANOMALY   = 334.6906

EPHEMERIS_TYPE = 0
CLASSIFICATION_TYPE = U
NORAD_CAT_ID   = 21876
ELEMENT_SET_NO = 999
REV_AT_EPOCH   = 70658
BSTAR          = .54654569E-4
MEAN_MOTION_DOT = .68E-6
MEAN_MOTION_DDOT = 0

CCSDS_OMM_VERS = 2.0
CREATION_DATE  = 
ORIGINATOR     = 

OBJECT_NAME    = SL-8 R/B
OBJECT_ID      = 1992-020B
CENTER_NAME    = EARTH
REF_FRAME      = TEME
TIME_SYSTEM    = UTC
MEAN_ELEMENT_THEORY = SGP/SGP4

EPOCH          = 2026-02-17T05:50:29.806656
MEAN_MOTION    = 13.75546724
ECCENTRICITY   = .00287232
INCLINATION    = 82.9338
RA_OF_ASC_NODE = 168.9371
ARG_OF_PERICENTER = 357.5880
MEAN_ANOMALY   = 18.6070

EPHEMERIS_TYPE = 0
CLASSIFICATION_TYPE = U
NORAD_CAT_ID   = 21938
ELEMENT_SET_NO = 999
REV_AT_EPOCH   = 69832
BSTAR          = .84935787E-4
MEAN_MOTION_DOT = .97E-6
MEAN_MOTION_DDOT = 0

CCSDS_OMM_VERS = 2.0
CREATION_DATE  = 
ORIGINATOR     = 

OBJECT_NAME    = USA 81
OBJECT_ID      = 1992-023A
CENTER_NAME    = EARTH
REF_FRAME      = TEME
TIME_SYSTEM    = UTC
MEAN_ELEMENT_THEORY = SGP/SGP4

EPOCH          = 2026-02-17T06:14:49.520832
MEAN_MOTION    = 14.32360516
ECCENTRICITY   = .00027627
INCLINATION    = 85.0116
RA_OF_ASC_NODE = 143.2221
ARG_OF_PERICENTER = 95.8960
MEAN_ANOMALY   = 264.2548

EPHEMERIS_TYPE = 0
CLASSIFICATION_TYPE = U
NORAD_CAT_ID   = 21949
ELEMENT_SET_NO = 999
REV_AT_EPOCH   = 9186
BSTAR          = .69042094E-4
MEAN_MOTION_DOT = .206E-5
MEAN_MOTION_DDOT = 0

CCSDS_OMM_VERS = 2.0
CREATION_DATE  = 
ORIGINATOR     = 

OBJECT_NAME    = COSMOS 2219
OBJECT_ID      = 1992-076A
CENTER_NAME    = EARTH
REF_FRAME      = TEME
TIME_SYSTEM    = UTC
MEAN_ELEMENT_THEORY = SGP/SGP4

EPOCH          = 2026-02-17T06:57:21.400992
MEAN_MOTION    = 14.14078573
ECCENTRICITY   = .00199353
INCLINATION    = 71.0582
RA_OF_ASC_NODE = 60.7147
ARG_OF_PERICENTER = 234.5703
MEAN_ANOMALY   = 125.3558

EPHEMERIS_TYPE = 0
CLASSIFICATION_TYPE = U
NORAD_CAT_ID   = 22219
ELEMENT_SET_NO = 999
REV_AT_EPOCH   = 71549
BSTAR          = .13800396E-3
MEAN_MOTION_DOT = .216E-5
MEAN_MOTION_DDOT = 0

CCSDS_OMM_VERS = 2.0
CREATION_DATE  = 
ORIGINATOR     = 

OBJECT_NAME    = SL-16 R/B
OBJECT_ID      = 1992-076B
CENTER_NAME    = EARTH
REF_FRAME      = TEME
TIME_SYSTEM    = UTC
MEAN_ELEMENT_THEORY = SGP/SGP4

EPOCH          = 2026-02-16T22:59:32.763840
MEAN_MOTION    = 14.16855003
ECCENTRICITY   = .00111866
INCLINATION    = 70.9975
RA_OF_ASC_NODE = 232.0436
ARG_OF_PERICENTER = 134.0991
MEAN_ANOMALY   = 17.7614

EPHEMERIS_TYPE = 0
CLASSIFICATION_TYPE = U
NORAD_CAT_ID   = 22220
ELEMENT_SET_NO = 999
REV_AT_EPOCH   = 71889
BSTAR          = -.56970468E-4
MEAN_MOTION_DOT = -.162E-5
MEAN_MOTION_DDOT = 0

CCSDS_OMM_VERS = 2.0
CREATION_DATE  = 
ORIGINATOR     = 

OBJECT_NAME    = COSMOS 2221
OBJECT_ID      = 1992-080A
CENTER_NAME    = EARTH
REF_FRAME      = TEME
TIME_SYSTEM    = UTC
MEAN_ELEMENT_THEORY = SGP/SGP4

EPOCH          = 2026-02-17T04:07:55.783488
MEAN_MOTION    = 14.96120543
ECCENTRICITY   = .00127971
INCLINATION    = 82.5044
RA_OF_ASC_NODE = 298.7330
ARG_OF_PERICENTER = 261.9986
MEAN_ANOMALY   = 97.9784

EPHEMERIS_TYPE = 0
CLASSIFICATION_TYPE = U
NORAD_CAT_ID   = 22236
ELEMENT_SET_NO = 999
REV_AT_EPOCH   = 77772
BSTAR          = .18719755E-3
MEAN_MOTION_DOT = .2134E-4
MEAN_MOTION_DDOT = 0

CCSDS_OMM_VERS = 2.0
CREATION_DATE  = 
ORIGINATOR     = 

OBJECT_NAME    = SL-16 R/B
OBJECT_ID      = 1992-093B
CENTER_NAME    = EARTH
REF_FRAME      = TEME
TIME_SYSTEM    = UTC
MEAN_ELEMENT_THEORY = SGP/SGP4

EPOCH          = 2026-02-17T05:53:02.281056
MEAN_MOTION    = 14.15444086
ECCENTRICITY   = .00054825
INCLINATION    = 71.0208
RA_OF_ASC_NODE = 47.1842
ARG_OF_PERICENTER = 315.9413
MEAN_ANOMALY   = 44.1272

EPHEMERIS_TYPE = 0
CLASSIFICATION_TYPE = U
NORAD_CAT_ID   = 22285
ELEMENT_SET_NO = 999
REV_AT_EPOCH   = 71026
BSTAR          = .18221277E-3
MEAN_MOTION_DOT = .308E-5
MEAN_MOTION_DDOT = 0

CCSDS_OMM_VERS = 2.0
CREATION_DATE  = 
ORIGINATOR     = 

OBJECT_NAME    = COSMOS 2228
OBJECT_ID      = 1992-094A
CENTER_NAME    = EARTH
REF_FRAME      = TEME
TIME_SYSTEM    = UTC
MEAN_ELEMENT_THEORY = SGP/SGP4

EPOCH          = 2026-02-17T06:27:05.835456
MEAN_MOTION    = 14.97091010
ECCENTRICITY   = .00184302
INCLINATION    = 82.5147
RA_OF_ASC_NODE = 256.8662
ARG_OF_PERICENTER = 15.2321
MEAN_ANOMALY   = 344.9453

EPHEMERIS_TYPE = 0
CLASSIFICATION_TYPE = U
NORAD_CAT_ID   = 22286
ELEMENT_SET_NO = 999
REV_AT_EPOCH   = 77300
BSTAR          = .17697247E-3
MEAN_MOTION_DOT = .2073E-4
MEAN_MOTION_DDOT = 0

